[{"OBJECT_NAME":"SHIYAN-5 (SY-5)","OBJECT_ID":"2013-068A","EPOCH":"2026-03-09T23:05:17.847168","MEAN_MOTION":14.43628019,"ECCENTRICITY":0.00128666,"INCLINATION":98.0874,"RA_OF_ASC_NODE":305.1507,"ARG_OF_PERICENTER":245.0461,"MEAN_ANOMALY":114.9394,"EPHEMERIS_TYPE":0,"CLASSIFICATION_TYPE":"U","NORAD_CAT_ID":39455,"ELEMENT_SET_NO":999,"REV_AT_EPOCH":64731,"BSTAR":0.00021006914,"MEAN_MOTION_DOT":6.72e-6,"MEAN_MOTION_DDOT":0},{"OBJECT_NAME":"FENGYUN 1C DEB","OBJECT_ID":"1999-025AXD","EPOCH":"2026-03-09T15:48:45.567936","MEAN_MOTION":14.28953882,"ECCENTRICITY":0.0052856,"INCLINATION":97.8741,"RA_OF_ASC_NODE":332.0828,"ARG_OF_PERICENTER":93.3593,"MEAN_ANOMALY":327.9529,"EPHEMERIS_TYPE":0,"CLASSIFICATION_TYPE":"U","NORAD_CAT_ID":30867,"ELEMENT_SET_NO":999,"REV_AT_EPOCH":97778,"BSTAR":0.0018584,"MEAN_MOTION_DOT":4.733e-5,"MEAN_MOTION_DDOT":0}]
